[{"OBJECT_NAME":"CANX-4","OBJECT_ID":"2014-034C","EPOCH":"2026-03-09T13:49:15.377088","MEAN_MOTION":14.8106136,"ECCENTRICITY":0.0012356,"INCLINATION":98.3276,"RA_OF_ASC_NODE":300.1593,"ARG_OF_PERICENTER":336.897,"MEAN_ANOMALY":23.1684,"EPHEMERIS_TYPE":0,"CLASSIFICATION_TYPE":"U","NORAD_CAT_ID":40055,"ELEMENT_SET_NO":999,"REV_AT_EPOCH":62978,"BSTAR":0.00019272,"MEAN_MOTION_DOT":1.439e-5,"MEAN_MOTION_DDOT":0},{"OBJECT_NAME":"GEESAT-6 09","OBJECT_ID":"2025-214K","EPOCH":"2026-03-09T22:24:29.731680","MEAN_MOTION":14.8300753,"ECCENTRICITY":0.00083289,"INCLINATION":49.9843,"RA_OF_ASC_NODE":48.1126,"ARG_OF_PERICENTER":190.9189,"MEAN_ANOMALY":169.1569,"EPHEMERIS_TYPE":0,"CLASSIFICATION_TYPE":"U","NORAD_CAT_ID":65721,"ELEMENT_SET_NO":999,"REV_AT_EPOCH":2477,"BSTAR":0.00038162115,"MEAN_MOTION_DOT":2.911e-5,"MEAN_MOTION_DDOT":0}]
